[{"OBJECT_NAME":"ONEWEB-0281","OBJECT_ID":"2021-060AJ","EPOCH":"2026-03-09T23:11:29.824224","MEAN_MOTION":13.16593547,"ECCENTRICITY":0.00014924,"INCLINATION":87.9003,"RA_OF_ASC_NODE":248.5056,"ARG_OF_PERICENTER":95.5253,"MEAN_ANOMALY":264.6048,"EPHEMERIS_TYPE":0,"CLASSIFICATION_TYPE":"U","NORAD_CAT_ID":48999,"ELEMENT_SET_NO":999,"REV_AT_EPOCH":22657,"BSTAR":-1.9844362e-5,"MEAN_MOTION_DOT":5.0e-8,"MEAN_MOTION_DDOT":0},{"OBJECT_NAME":"COSMOS 1691 DEB","OBJECT_ID":"1985-094S","EPOCH":"2026-03-09T21:55:37.718400","MEAN_MOTION":13.13898461,"ECCENTRICITY":0.00353764,"INCLINATION":82.5538,"RA_OF_ASC_NODE":233.7095,"ARG_OF_PERICENTER":314.6673,"MEAN_ANOMALY":170.0595,"EPHEMERIS_TYPE":0,"CLASSIFICATION_TYPE":"U","NORAD_CAT_ID":17168,"ELEMENT_SET_NO":999,"REV_AT_EPOCH":89038,"BSTAR":0.0071438608,"MEAN_MOTION_DOT":2.646e-5,"MEAN_MOTION_DDOT":0}]
